*******************************************************************************
Ephemeris / WWW_USER Mon Mar 24 09:38:20 2025 Pasadena, USA      / Horizons    
*******************************************************************************
Target body name: 468861 (2013 LU28)              {source: JPL#36}
Center body name: Earth (399)                     {source: DE441}
Center-site name: Mauna Kea
*******************************************************************************
Start time      : A.D. 2018-Sep-13 04:36:00.0000 UT      
Stop  time      : A.D. 2018-Sep-13 15:59:00.0000 UT      
Step-size       : 1 minutes
*******************************************************************************
Target pole/equ : undefined
Target radii    : undefined                                                    
Center geodetic : 204.5278, 19.8260847, 4.21024   {E-lon(deg),Lat(deg),Alt(km)}
Center cylindric: 204.5278, 6006.35451, 2151.0229 {E-lon(deg),Dxy(km),Dz(km)}
Center pole/equ : ITRF93                          {East-longitude positive}
Center radii    : 6378.137, 6378.137, 6356.752 km {Equator_a, b, pole_c}       
Target primary  : Sun
Vis. interferer : MOON (R_eq= 1737.400) km        {source: DE441}
Rel. light bend : Sun                             {source: DE441}
Rel. lght bnd GM: 1.3271E+11 km^3/s^2                                          
Small-body perts: Yes                             {source: SB441-N16}
Atmos refraction: NO (AIRLESS)
RA format       : HMS
Time format     : CAL 
Calendar mode   : Mixed Julian/Gregorian
RTS-only print  : NO       
EOP file        : eop.250321.p250617                                           
EOP coverage    : DATA-BASED 1962-JAN-20 TO 2025-MAR-21. PREDICTS-> 2025-JUN-16
Units conversion: 1 au= 149597870.700 km, c= 299792.458 km/s, 1 day= 86400.0 s 
Table cut-offs 1: Elevation (-90.0deg=NO ),Airmass (>38.000=NO), Daylight (YES)
Table cut-offs 2: Solar elongation (  0.0,180.0=NO ),Local Hour Angle( 0.0=NO )
Table cut-offs 3: RA/DEC angular rate (     0.0=NO )                           
*******************************************************************************
Initial IAU76/J2000 heliocentric ecliptic osculating elements (au, days, deg.):
  EPOCH=  2459491.5 ! 2021-Oct-04.00 (TDB)         Residual RMS= .14077        
   EC= .9545524767334098   QR= 8.741840911970645   TP= 2460480.7801673855      
   OM= 275.9923561772391   W=  152.9171912923278   IN= 125.3473013584344       
  Equivalent ICRF heliocentric cartesian coordinates (au, au/d):
   X=-6.020062670108302E+00  Y=-1.182282064265113E+00  Z= 8.330249486138040E+00
  VX= 2.086988006100027E-03 VY= 7.079392581348984E-03 VZ=-1.092497303529149E-03
Asteroid physical parameters (km, seconds, rotational period in hours):        
   GM= n.a.                RAD= n.a.               ROTPER= n.a.                
   H= 8.24                 G= .150                 B-V= n.a.                   
                           ALBEDO= n.a.            STYP= n.a.                  
*******************************************************************************
 Date__(UT)__HR:MN     R.A._________(ICRF)_________DEC
******************************************************
$$SOE
 2018-Sep-13 14:51     14 59 41.996111 +35 23 48.78620
 2018-Sep-13 14:52     14 59 42.000532 +35 23 48.69392
 2018-Sep-13 14:53     14 59 42.004953 +35 23 48.60164
 2018-Sep-13 14:54     14 59 42.009373 +35 23 48.50937
 2018-Sep-13 14:55     14 59 42.013793 +35 23 48.41711
 2018-Sep-13 14:56 A   14 59 42.018214 +35 23 48.32485
 2018-Sep-13 14:57 A   14 59 42.022634 +35 23 48.23260
 2018-Sep-13 14:58 A   14 59 42.027054 +35 23 48.14035
 2018-Sep-13 14:59 A   14 59 42.031474 +35 23 48.04811
 2018-Sep-13 15:00 A   14 59 42.035893 +35 23 47.95588
 2018-Sep-13 15:01 A   14 59 42.040313 +35 23 47.86366
 2018-Sep-13 15:02 A   14 59 42.044733 +35 23 47.77144
 2018-Sep-13 15:03 A   14 59 42.049152 +35 23 47.67923
 2018-Sep-13 15:04 A   14 59 42.053571 +35 23 47.58702
 2018-Sep-13 15:05 A   14 59 42.057990 +35 23 47.49482
 2018-Sep-13 15:06 A   14 59 42.062409 +35 23 47.40263
 2018-Sep-13 15:07 A   14 59 42.066828 +35 23 47.31044
 2018-Sep-13 15:08 A   14 59 42.071246 +35 23 47.21826
 2018-Sep-13 15:09 A   14 59 42.075665 +35 23 47.12609
 2018-Sep-13 15:10 A   14 59 42.080083 +35 23 47.03392
 2018-Sep-13 15:11 A   14 59 42.084501 +35 23 46.94176
 2018-Sep-13 15:12 A   14 59 42.088919 +35 23 46.84961
 2018-Sep-13 15:13 A   14 59 42.093337 +35 23 46.75746
 2018-Sep-13 15:14 A   14 59 42.097755 +35 23 46.66532
 2018-Sep-13 15:15 A   14 59 42.102172 +35 23 46.57319
 2018-Sep-13 15:16 A   14 59 42.106589 +35 23 46.48106
 2018-Sep-13 15:17 A   14 59 42.111006 +35 23 46.38894
 2018-Sep-13 15:18 A   14 59 42.115423 +35 23 46.29682
 2018-Sep-13 15:19 A   14 59 42.119840 +35 23 46.20471
 2018-Sep-13 15:20 A   14 59 42.124256 +35 23 46.11261
 2018-Sep-13 15:21 A   14 59 42.128673 +35 23 46.02051
 2018-Sep-13 15:22 N   14 59 42.133089 +35 23 45.92842
 2018-Sep-13 15:23 N   14 59 42.137505 +35 23 45.83634
 2018-Sep-13 15:24 N   14 59 42.141920 +35 23 45.74426
 2018-Sep-13 15:25 N   14 59 42.146336 +35 23 45.65219
 2018-Sep-13 15:26 N   14 59 42.150751 +35 23 45.56012
 2018-Sep-13 15:27 N   14 59 42.155166 +35 23 45.46806
 2018-Sep-13 15:28 N   14 59 42.159580 +35 23 45.37601
 2018-Sep-13 15:29 N   14 59 42.163995 +35 23 45.28397
 2018-Sep-13 15:30 N   14 59 42.168409 +35 23 45.19193
 2018-Sep-13 15:31 N   14 59 42.172823 +35 23 45.09989
 2018-Sep-13 15:32 N   14 59 42.177237 +35 23 45.00787
 2018-Sep-13 15:33 N   14 59 42.181651 +35 23 44.91584
 2018-Sep-13 15:34 N   14 59 42.186064 +35 23 44.82383
 2018-Sep-13 15:35 N   14 59 42.190477 +35 23 44.73182
 2018-Sep-13 15:36 N   14 59 42.194890 +35 23 44.63982
 2018-Sep-13 15:37 N   14 59 42.199302 +35 23 44.54782
 2018-Sep-13 15:38 N   14 59 42.203715 +35 23 44.45583
 2018-Sep-13 15:39 N   14 59 42.208127 +35 23 44.36385
 2018-Sep-13 15:40 N   14 59 42.212538 +35 23 44.27187
 2018-Sep-13 15:41 N   14 59 42.216950 +35 23 44.17990
 2018-Sep-13 15:42 N   14 59 42.221361 +35 23 44.08793
 2018-Sep-13 15:43 N   14 59 42.225772 +35 23 43.99597
 2018-Sep-13 15:44 N   14 59 42.230183 +35 23 43.90402
 2018-Sep-13 15:45 N   14 59 42.234593 +35 23 43.81207
 2018-Sep-13 15:46 N   14 59 42.239003 +35 23 43.72013
 2018-Sep-13 15:47 C   14 59 42.243413 +35 23 43.62819
 2018-Sep-13 15:48 C   14 59 42.247822 +35 23 43.53626
 2018-Sep-13 15:49 C   14 59 42.252232 +35 23 43.44434
 2018-Sep-13 15:50 C   14 59 42.256641 +35 23 43.35242
 2018-Sep-13 15:51 C   14 59 42.261049 +35 23 43.26051
 2018-Sep-13 15:52 C   14 59 42.265457 +35 23 43.16861
 2018-Sep-13 15:53 C   14 59 42.269865 +35 23 43.07671
 2018-Sep-13 15:54 C   14 59 42.274273 +35 23 42.98481
 2018-Sep-13 15:55 C   14 59 42.278680 +35 23 42.89293
 2018-Sep-13 15:56 C   14 59 42.283087 +35 23 42.80104
 2018-Sep-13 15:57 C   14 59 42.287494 +35 23 42.70917
 2018-Sep-13 15:58 C   14 59 42.291900 +35 23 42.61730
 2018-Sep-13 15:59 C   14 59 42.296306 +35 23 42.52543
